[Satellite]
VERSION=1.1
NAME=CZ-6A DEB
NICKNAME=CZ-6A DEB
TLE1=1 54542U 22151KS  22342.24245216  .00000496  00000+0  30024-3 0  9990
TLE2=2 54542  98.8181 346.8415 0036701   4.6523 355.4982 14.10696966  3440
STATUS=0
